{"type": "FeatureCollection", "features": [ {"type": "Feature", "properties": {"norad_id": 35961, "name": "COSMOS 2251 DEB", "group": "cosmos-2251-debris", "lat": -13.679985311704637, "lon": -156.7555308010038, "alt_km": 1005.3378212326297, "timestamp": "2025-12-10T23:33:13.214726+00:00", "meta": {"OBJECT_NAME": "COSMOS 2251 DEB", "OBJECT_ID": "1993-036AVB", "EPOCH": "2025-12-10T08:14:51.969120", "MEAN_MOTION": 14.05370691, "ECCENTRICITY": 0.01920787, "INCLINATION": 73.925, "RA_OF_ASC_NODE": 208.3903, "ARG_OF_PERICENTER": 142.227, "MEAN_ANOMALY": 219.2531, "EPHEMERIS_TYPE": 0, "CLASSIFICATION_TYPE": "U", "NORAD_CAT_ID": 35961, "ELEMENT_SET_NO": 999, "REV_AT_EPOCH": 62648, "BSTAR": 0.0010781968, "MEAN_MOTION_DOT": 2.039e-05, "MEAN_MOTION_DDOT": 0}, "tle": {"line1": "1 35961U 93036AVB 25344.34365705  .00002039  00000+0  10782-2 0  9999", "line2": "2 35961  73.9250 208.3903 0192078 142.2270 219.2531 14.05370691626487"}}, "geometry": {"type": "Point", "coordinates": [-156.7555308010038, -13.679985311704637]}}, {"type": "Feature", "properties": {"norad_id": 35979, "name": "COSMOS 2251 DEB", "group": "cosmos-2251-debris", "lat": 21.124071388194746, "lon": 55.46472352511129, "alt_km": 679.0902908211856, "timestamp": "2025-12-10T23:33:13.214735+00:00", "meta": {"OBJECT_NAME": "COSMOS 2251 DEB", "OBJECT_ID": "1993-036AVV", "EPOCH": "2025-12-09T11:50:03.223968", "MEAN_MOTION": 14.74576302, "ECCENTRICITY": 0.00588204, "INCLINATION": 74.0104, "RA_OF_ASC_NODE": 244.7352, "ARG_OF_PERICENTER": 17.6471, "MEAN_ANOMALY": 162.3797, "EPHEMERIS_TYPE": 0, "CLASSIFICATION_TYPE": "U", "NORAD_CAT_ID": 35979, "ELEMENT_SET_NO": 999, "REV_AT_EPOCH": 88585, "BSTAR": 0.0014101379, "MEAN_MOTION_DOT": 9.639e-05, "MEAN_MOTION_DDOT": 0}, "tle": {"line1": "1 35979U 93036AVV 25343.49309287  .00009639  00000+0  14101-2 0  9998", "line2": "2 35979  74.0104 244.7352 0058820  17.6471 162.3797 14.74576302885855"}}, "geometry": {"type": "Point", "coordinates": [55.46472352511129, 21.124071388194746]}}, {"type": "Feature", "properties": {"norad_id": 35980, "name": "COSMOS 2251 DEB", "group": "cosmos-2251-debris", "lat": 45.65891887152699, "lon": -71.11451856031847, "alt_km": 714.7739556246815, "timestamp": "2025-12-10T23:33:13.214744+00:00", "meta": {"OBJECT_NAME": "COSMOS 2251 DEB", "OBJECT_ID": "1993-036AVW", "EPOCH": "2025-12-02T19:08:08.015136", "MEAN_MOTION": 14.59062146, "ECCENTRICITY": 0.00537712, "INCLINATION": 73.91, "RA_OF_ASC_NODE": 141.7735, "ARG_OF_PERICENTER": 277.5645, "MEAN_ANOMALY": 81.9413, "EPHEMERIS_TYPE": 0, "CLASSIFICATION_TYPE": "U", "NORAD_CAT_ID": 35980, "ELEMENT_SET_NO": 999, "REV_AT_EPOCH": 61341, "BSTAR": 0.002036555, "MEAN_MOTION_DOT": 9.752e-05, "MEAN_MOTION_DDOT": 0}, "tle": {"line1": "1 35980U 93036AVW 25336.79731499  .00009752  00000+0  20366-2 0  9995", "line2": "2 35980  73.9100 141.7735 0053771 277.5645  81.9413 14.59062146613413"}}, "geometry": {"type": "Point", "coordinates": [-71.11451856031847, 45.65891887152699]}}, {"type": "Feature", "properties": {"norad_id": 35982, "name": "COSMOS 2251 DEB", "group": "cosmos-2251-debris", "lat": 33.103182450950754, "lon": 1.0354326557535674, "alt_km": 640.1215724558933, "timestamp": "2025-12-10T23:33:13.214753+00:00", "meta": {"OBJECT_NAME": "COSMOS 2251 DEB", "OBJECT_ID": "1993-036AVY", "EPOCH": "2025-12-10T10:15:57.560256", "MEAN_MOTION": 14.62729028, "ECCENTRICITY": 0.00640782, "INCLINATION": 74.0584, "RA_OF_ASC_NODE": 351.3546, "ARG_OF_PERICENTER": 58.3661, "MEAN_ANOMALY": 302.3736, "EPHEMERIS_TYPE": 0, "CLASSIFICATION_TYPE": "U", "NORAD_CAT_ID": 35982, "ELEMENT_SET_NO": 999, "REV_AT_EPOCH": 86132, "BSTAR": 0.00082067194, "MEAN_MOTION_DOT": 4.278e-05, "MEAN_MOTION_DDOT": 0}, "tle": {"line1": "1 35982U 93036AVY 25344.42774954  .00004278  00000+0  82067-3 0  9994", "line2": "2 35982  74.0584 351.3546 0064078  58.3661 302.3736 14.62729028861323"}}, "geometry": {"type": "Point", "coordinates": [1.0354326557535674, 33.103182450950754]}}, {"type": "Feature", "properties": {"norad_id": 35987, "name": "COSMOS 2251 DEB", "group": "cosmos-2251-debris", "lat": 26.204718252348336, "lon": 141.7976879725343, "alt_km": 728.6926973004702, "timestamp": "2025-12-10T23:33:13.214762+00:00", "meta": {"OBJECT_NAME": "COSMOS 2251 DEB", "OBJECT_ID": "1993-036AWD", "EPOCH": "2025-12-09T16:54:21.694464", "MEAN_MOTION": 14.43096791, "ECCENTRICITY": 0.00459367, "INCLINATION": 73.9999, "RA_OF_ASC_NODE": 332.2918, "ARG_OF_PERICENTER": 98.9143, "MEAN_ANOMALY": 261.7217, "EPHEMERIS_TYPE": 0, "CLASSIFICATION_TYPE": "U", "NORAD_CAT_ID": 35987, "ELEMENT_SET_NO": 999, "REV_AT_EPOCH": 61021, "BSTAR": 0.0015703221, "MEAN_MOTION_DOT": 5.314e-05, "MEAN_MOTION_DDOT": 0}, "tle": {"line1": "1 35987U 93036AWD 25343.70441776  .00005314  00000+0  15703-2 0  9996", "line2": "2 35987  73.9999 332.2918 0045936  98.9143 261.7217 14.43096791610219"}}, "geometry": {"type": "Point", "coordinates": [141.7976879725343, 26.204718252348336]}}, {"type": "Feature", "properties": {"norad_id": 35989, "name": "COSMOS 2251 DEB", "group": "cosmos-2251-debris", "lat": -51.98722267612217, "lon": 128.54436112460178, "alt_km": 785.6196924660144, "timestamp": "2025-12-10T23:33:13.214771+00:00", "meta": {"OBJECT_NAME": "COSMOS 2251 DEB", "OBJECT_ID": "1993-036AWF", "EPOCH": "2025-12-10T12:26:20.084928", "MEAN_MOTION": 14.37097303, "ECCENTRICITY": 0.00219152, "INCLINATION": 74.0383, "RA_OF_ASC_NODE": 287.9166, "ARG_OF_PERICENTER": 10.2145, "MEAN_ANOMALY": 349.9449, "EPHEMERIS_TYPE": 0, "CLASSIFICATION_TYPE": "U", "NORAD_CAT_ID": 35989, "ELEMENT_SET_NO": 999, "REV_AT_EPOCH": 87147, "BSTAR": 0.00040745233, "MEAN_MOTION_DOT": 1.187e-05, "MEAN_MOTION_DDOT": 0}, "tle": {"line1": "1 35989U 93036AWF 25344.51828802  .00001187  00000+0  40745-3 0  9996", "line2": "2 35989  74.0383 287.9166 0021915  10.2145 349.9449 14.37097303871477"}}, "geometry": {"type": "Point", "coordinates": [128.54436112460178, -51.98722267612217]}}, {"type": "Feature", "properties": {"norad_id": 35993, "name": "COSMOS 2251 DEB", "group": "cosmos-2251-debris", "lat": -60.154299069402285, "lon": -53.785852667122406, "alt_km": 695.8592900890917, "timestamp": "2025-12-10T23:33:13.214779+00:00", "meta": {"OBJECT_NAME": "COSMOS 2251 DEB", "OBJECT_ID": "1993-036AWK", "EPOCH": "2025-12-09T16:42:55.834848", "MEAN_MOTION": 14.65265094, "ECCENTRICITY": 0.00290722, "INCLINATION": 74.0153, "RA_OF_ASC_NODE": 338.6616, "ARG_OF_PERICENTER": 169.2926, "MEAN_ANOMALY": 190.8869, "EPHEMERIS_TYPE": 0, "CLASSIFICATION_TYPE": "U", "NORAD_CAT_ID": 35993, "ELEMENT_SET_NO": 999, "REV_AT_EPOCH": 60398, "BSTAR": 0.0011875212, "MEAN_MOTION_DOT": 6.416e-05, "MEAN_MOTION_DDOT": 0}, "tle": {"line1": "1 35993U 93036AWK 25343.69647957  .00006416  00000+0  11875-2 0  9990", "line2": "2 35993  74.0153 338.6616 0029072 169.2926 190.8869 14.65265094603988"}}, "geometry": {"type": "Point", "coordinates": [-53.785852667122406, -60.154299069402285]}}, {"type": "Feature", "properties": {"norad_id": 35996, "name": "COSMOS 2251 DEB", "group": "cosmos-2251-debris", "lat": 69.59858339228272, "lon": -123.36571675951606, "alt_km": 537.230291047209, "timestamp": "2025-12-10T23:33:13.214788+00:00", "meta": {"OBJECT_NAME": "COSMOS 2251 DEB", "OBJECT_ID": "1993-036AWN", "EPOCH": "2025-12-06T15:40:07.668192", "MEAN_MOTION": 15.08900528, "ECCENTRICITY": 0.00890114, "INCLINATION": 74.0155, "RA_OF_ASC_NODE": 115.9821, "ARG_OF_PERICENTER": 208.3907, "MEAN_ANOMALY": 151.2421, "EPHEMERIS_TYPE": 0, "CLASSIFICATION_TYPE": "U", "NORAD_CAT_ID": 35996, "ELEMENT_SET_NO": 999, "REV_AT_EPOCH": 72234, "BSTAR": 0.001269926, "MEAN_MOTION_DOT": 0.00021998, "MEAN_MOTION_DDOT": 0}, "tle": {"line1": "1 35996U 93036AWN 25340.65286653  .00021998  00000+0  12699-2 0  9995", "line2": "2 35996  74.0155 115.9821 0089011 208.3907 151.2421 15.08900528722343"}}, "geometry": {"type": "Point", "coordinates": [-123.36571675951606, 69.59858339228272]}}, {"type": "Feature", "properties": {"norad_id": 35997, "name": "COSMOS 2251 DEB", "group": "cosmos-2251-debris", "lat": -19.317163629923417, "lon": 16.357294642950727, "alt_km": 721.6227923715524, "timestamp": "2025-12-10T23:33:13.214797+00:00", "meta": {"OBJECT_NAME": "COSMOS 2251 DEB", "OBJECT_ID": "1993-036AWP", "EPOCH": "2025-12-09T20:09:48.839904", "MEAN_MOTION": 14.51292272, "ECCENTRICITY": 0.00157365, "INCLINATION": 74.043, "RA_OF_ASC_NODE": 192.7469, "ARG_OF_PERICENTER": 268.5156, "MEAN_ANOMALY": 91.4203, "EPHEMERIS_TYPE": 0, "CLASSIFICATION_TYPE": "U", "NORAD_CAT_ID": 35997, "ELEMENT_SET_NO": 999, "REV_AT_EPOCH": 70842, "BSTAR": 0.00093479882, "MEAN_MOTION_DOT": 3.7e-05, "MEAN_MOTION_DDOT": 0}, "tle": {"line1": "1 35997U 93036AWP 25343.84014861  .00003700  00000+0  93480-3 0  9999", "line2": "2 35997  74.0430 192.7469 0015736 268.5156  91.4203 14.51292272708421"}}, "geometry": {"type": "Point", "coordinates": [16.357294642950727, -19.317163629923417]}}, {"type": "Feature", "properties": {"norad_id": 36005, "name": "COSMOS 2251 DEB", "group": "cosmos-2251-debris", "lat": -69.46459444484634, "lon": -32.827879105211345, "alt_km": 700.2767969432025, "timestamp": "2025-12-10T23:33:13.214806+00:00", "meta": {"OBJECT_NAME": "COSMOS 2251 DEB", "OBJECT_ID": "1993-036AWX", "EPOCH": "2025-12-09T18:10:04.760256", "MEAN_MOTION": 14.47350954, "ECCENTRICITY": 0.00620063, "INCLINATION": 74.0266, "RA_OF_ASC_NODE": 99.5861, "ARG_OF_PERICENTER": 237.5434, "MEAN_ANOMALY": 121.9721, "EPHEMERIS_TYPE": 0, "CLASSIFICATION_TYPE": "U", "NORAD_CAT_ID": 36005, "ELEMENT_SET_NO": 999, "REV_AT_EPOCH": 87541, "BSTAR": 0.0003861818, "MEAN_MOTION_DOT": 1.421e-05, "MEAN_MOTION_DDOT": 0}, "tle": {"line1": "1 36005U 93036AWX 25343.75699954  .00001421  00000+0  38618-3 0  9992", "line2": "2 36005  74.0266  99.5861 0062006 237.5434 121.9721 14.47350954875411"}}, "geometry": {"type": "Point", "coordinates": [-32.827879105211345, -69.46459444484634]}}]}